CCSDS_OMM_VERS = 2.0
CREATION_DATE  = 
ORIGINATOR     = 

OBJECT_NAME    = 2025-234B
OBJECT_ID      = 2025-234B
CENTER_NAME    = EARTH
REF_FRAME      = TEME
TIME_SYSTEM    = UTC
MEAN_ELEMENT_THEORY = SGP/SGP4

EPOCH          = 2025-11-10T22:50:38.679648
MEAN_MOTION    = 15.21306091
ECCENTRICITY   = .00145165
INCLINATION    = 97.5027
RA_OF_ASC_NODE = 20.5364
ARG_OF_PERICENTER = 196.8699
MEAN_ANOMALY   = 163.2056

EPHEMERIS_TYPE = 0
CLASSIFICATION_TYPE = U
NORAD_CAT_ID   = 66054
ELEMENT_SET_NO = 999
REV_AT_EPOCH   = 347
BSTAR          = .43207105E-3
MEAN_MOTION_DOT = .9628E-4
MEAN_MOTION_DDOT = 0

CCSDS_OMM_VERS = 2.0
CREATION_DATE  = 
ORIGINATOR     = 

OBJECT_NAME    = 2025-234C
OBJECT_ID      = 2025-234C
CENTER_NAME    = EARTH
REF_FRAME      = TEME
TIME_SYSTEM    = UTC
MEAN_ELEMENT_THEORY = SGP/SGP4

EPOCH          = 2025-11-10T22:47:57.208416
MEAN_MOTION    = 15.21448176
ECCENTRICITY   = .00151763
INCLINATION    = 97.4551
RA_OF_ASC_NODE = 20.4026
ARG_OF_PERICENTER = 198.8106
MEAN_ANOMALY   = 161.2571

EPHEMERIS_TYPE = 0
CLASSIFICATION_TYPE = U
NORAD_CAT_ID   = 66055
ELEMENT_SET_NO = 999
REV_AT_EPOCH   = 347
BSTAR          = .36520418E-3
MEAN_MOTION_DOT = .8162E-4
MEAN_MOTION_DDOT = 0

CCSDS_OMM_VERS = 2.0
CREATION_DATE  = 
ORIGINATOR     = 

OBJECT_NAME    = 2025-234D
OBJECT_ID      = 2025-234D
CENTER_NAME    = EARTH
REF_FRAME      = TEME
TIME_SYSTEM    = UTC
MEAN_ELEMENT_THEORY = SGP/SGP4

EPOCH          = 2025-11-10T22:42:43.739712
MEAN_MOTION    = 15.22074495
ECCENTRICITY   = .00150535
INCLINATION    = 97.4529
RA_OF_ASC_NODE = 20.4012
ARG_OF_PERICENTER = 198.7472
MEAN_ANOMALY   = 161.3212

EPHEMERIS_TYPE = 0
CLASSIFICATION_TYPE = U
NORAD_CAT_ID   = 66056
ELEMENT_SET_NO = 999
REV_AT_EPOCH   = 346
BSTAR          = .12055128E-2
MEAN_MOTION_DOT = .27678E-3
MEAN_MOTION_DDOT = 0

CCSDS_OMM_VERS = 2.0
CREATION_DATE  = 
ORIGINATOR     = 

OBJECT_NAME    = 2025-234E
OBJECT_ID      = 2025-234E
CENTER_NAME    = EARTH
REF_FRAME      = TEME
TIME_SYSTEM    = UTC
MEAN_ELEMENT_THEORY = SGP/SGP4

EPOCH          = 2025-11-10T22:03:53.286336
MEAN_MOTION    = 15.37046454
ECCENTRICITY   = .0011673
INCLINATION    = 97.4796
RA_OF_ASC_NODE = 20.6888
ARG_OF_PERICENTER = 228.0998
MEAN_ANOMALY   = 131.9251

EPHEMERIS_TYPE = 0
CLASSIFICATION_TYPE = U
NORAD_CAT_ID   = 66057
ELEMENT_SET_NO = 999
REV_AT_EPOCH   = 348
BSTAR          = .15818001E-1
MEAN_MOTION_DOT = .614058E-2
MEAN_MOTION_DDOT = 0

CCSDS_OMM_VERS = 2.0
CREATION_DATE  = 
ORIGINATOR     = 

OBJECT_NAME    = STARLINK-35552
OBJECT_ID      = 2025-235A
CENTER_NAME    = EARTH
REF_FRAME      = TEME
TIME_SYSTEM    = UTC
MEAN_ELEMENT_THEORY = SGP/SGP4

EPOCH          = 2025-11-10T22:00:00.999936
MEAN_MOTION    = 15.73074893
ECCENTRICITY   = .00028039
INCLINATION    = 53.1554
RA_OF_ASC_NODE = 78.5965
ARG_OF_PERICENTER = 15.6975
MEAN_ANOMALY   = 336.4158

EPHEMERIS_TYPE = 0
CLASSIFICATION_TYPE = U
NORAD_CAT_ID   = 66058
ELEMENT_SET_NO = 999
REV_AT_EPOCH   = 476
BSTAR          = .82345156E-3
MEAN_MOTION_DOT = .11595E-2
MEAN_MOTION_DDOT = 0

CCSDS_OMM_VERS = 2.0
CREATION_DATE  = 
ORIGINATOR     = 

OBJECT_NAME    = STARLINK-35560
OBJECT_ID      = 2025-235B
CENTER_NAME    = EARTH
REF_FRAME      = TEME
TIME_SYSTEM    = UTC
MEAN_ELEMENT_THEORY = SGP/SGP4

EPOCH          = 2025-11-10T22:00:00.999936
MEAN_MOTION    = 15.49334653
ECCENTRICITY   = .00012658
INCLINATION    = 53.1595
RA_OF_ASC_NODE = 79.2804
ARG_OF_PERICENTER = 59.6200
MEAN_ANOMALY   = 315.3718

EPHEMERIS_TYPE = 0
CLASSIFICATION_TYPE = U
NORAD_CAT_ID   = 66059
ELEMENT_SET_NO = 999
REV_AT_EPOCH   = 476
BSTAR          = -.14557682E-2
MEAN_MOTION_DOT = -.80655E-3
MEAN_MOTION_DDOT = 0

CCSDS_OMM_VERS = 2.0
CREATION_DATE  = 
ORIGINATOR     = 

OBJECT_NAME    = STARLINK-35558
OBJECT_ID      = 2025-235C
CENTER_NAME    = EARTH
REF_FRAME      = TEME
TIME_SYSTEM    = UTC
MEAN_ELEMENT_THEORY = SGP/SGP4

EPOCH          = 2025-11-10T22:00:00.999936
MEAN_MOTION    = 15.49335022
ECCENTRICITY   = .00013175
INCLINATION    = 53.1596
RA_OF_ASC_NODE = 79.2752
ARG_OF_PERICENTER = 58.3646
MEAN_ANOMALY   = 318.5439

EPHEMERIS_TYPE = 0
CLASSIFICATION_TYPE = U
NORAD_CAT_ID   = 66060
ELEMENT_SET_NO = 999
REV_AT_EPOCH   = 476
BSTAR          = -.14610773E-2
MEAN_MOTION_DOT = -.80946E-3
MEAN_MOTION_DDOT = 0

CCSDS_OMM_VERS = 2.0
CREATION_DATE  = 
ORIGINATOR     = 

OBJECT_NAME    = STARLINK-35566
OBJECT_ID      = 2025-235D
CENTER_NAME    = EARTH
REF_FRAME      = TEME
TIME_SYSTEM    = UTC
MEAN_ELEMENT_THEORY = SGP/SGP4

EPOCH          = 2025-11-10T22:00:00.999936
MEAN_MOTION    = 15.49330013
ECCENTRICITY   = .00013531
INCLINATION    = 53.1595
RA_OF_ASC_NODE = 79.2724
ARG_OF_PERICENTER = 61.0142
MEAN_ANOMALY   = 317.8131

EPHEMERIS_TYPE = 0
CLASSIFICATION_TYPE = U
NORAD_CAT_ID   = 66061
ELEMENT_SET_NO = 999
REV_AT_EPOCH   = 476
BSTAR          = -.13306149E-2
MEAN_MOTION_DOT = -.73812E-3
MEAN_MOTION_DDOT = 0

CCSDS_OMM_VERS = 2.0
CREATION_DATE  = 
ORIGINATOR     = 

OBJECT_NAME    = STARLINK-35421
OBJECT_ID      = 2025-235E
CENTER_NAME    = EARTH
REF_FRAME      = TEME
TIME_SYSTEM    = UTC
MEAN_ELEMENT_THEORY = SGP/SGP4

EPOCH          = 2025-11-10T22:00:00.999936
MEAN_MOTION    = 15.49340355
ECCENTRICITY   = .00013603
INCLINATION    = 53.1594
RA_OF_ASC_NODE = 79.2672
ARG_OF_PERICENTER = 57.9472
MEAN_ANOMALY   = 322.8001

EPHEMERIS_TYPE = 0
CLASSIFICATION_TYPE = U
NORAD_CAT_ID   = 66062
ELEMENT_SET_NO = 999
REV_AT_EPOCH   = 476
BSTAR          = -.17456688E-2
MEAN_MOTION_DOT = -.96455E-3
MEAN_MOTION_DDOT = 0

CCSDS_OMM_VERS = 2.0
CREATION_DATE  = 
ORIGINATOR     = 

OBJECT_NAME    = STARLINK-35562
OBJECT_ID      = 2025-235F
CENTER_NAME    = EARTH
REF_FRAME      = TEME
TIME_SYSTEM    = UTC
MEAN_ELEMENT_THEORY = SGP/SGP4

EPOCH          = 2025-11-10T22:00:00.999936
MEAN_MOTION    = 15.49338076
ECCENTRICITY   = .00012294
INCLINATION    = 53.1595
RA_OF_ASC_NODE = 79.2642
ARG_OF_PERICENTER = 87.2271
MEAN_ANOMALY   = 295.4348

EPHEMERIS_TYPE = 0
CLASSIFICATION_TYPE = U
NORAD_CAT_ID   = 66063
ELEMENT_SET_NO = 999
REV_AT_EPOCH   = 476
BSTAR          = -.16158787E-2
MEAN_MOTION_DOT = -.89388E-3
MEAN_MOTION_DDOT = 0

CCSDS_OMM_VERS = 2.0
CREATION_DATE  = 
ORIGINATOR     = 

OBJECT_NAME    = STARLINK-35542
OBJECT_ID      = 2025-235G
CENTER_NAME    = EARTH
REF_FRAME      = TEME
TIME_SYSTEM    = UTC
MEAN_ELEMENT_THEORY = SGP/SGP4

EPOCH          = 2025-11-10T22:00:00.999936
MEAN_MOTION    = 15.47252552
ECCENTRICITY   = .00011337
INCLINATION    = 53.1595
RA_OF_ASC_NODE = 79.2625
ARG_OF_PERICENTER = 52.2950
MEAN_ANOMALY   = 330.5596

EPHEMERIS_TYPE = 0
CLASSIFICATION_TYPE = U
NORAD_CAT_ID   = 66064
ELEMENT_SET_NO = 999
REV_AT_EPOCH   = 476
BSTAR          = -.44985163E-1
MEAN_MOTION_DOT = -.2069824E-1
MEAN_MOTION_DDOT = 0

CCSDS_OMM_VERS = 2.0
CREATION_DATE  = 
ORIGINATOR     = 

OBJECT_NAME    = STARLINK-35375
OBJECT_ID      = 2025-235H
CENTER_NAME    = EARTH
REF_FRAME      = TEME
TIME_SYSTEM    = UTC
MEAN_ELEMENT_THEORY = SGP/SGP4

EPOCH          = 2025-11-10T22:00:00.999936
MEAN_MOTION    = 15.49718438
ECCENTRICITY   = .00009532
INCLINATION    = 53.1595
RA_OF_ASC_NODE = 79.2561
ARG_OF_PERICENTER = 90.9130
MEAN_ANOMALY   = 295.5075

EPHEMERIS_TYPE = 0
CLASSIFICATION_TYPE = U
NORAD_CAT_ID   = 66065
ELEMENT_SET_NO = 999
REV_AT_EPOCH   = 476
BSTAR          = -.24569091E-1
MEAN_MOTION_DOT = -.1257456E-1
MEAN_MOTION_DDOT = 0

