2025-234B               
1 66054U 25234B   25314.95183657  .00009628  00000+0  43207-3 0  9999
2 66054  97.5027  20.5364 0014516 196.8699 163.2056 15.21306091  3473
2025-234C               
1 66055U 25234C   25314.94996769  .00008162  00000+0  36520-3 0  9997
2 66055  97.4551  20.4026 0015176 198.8106 161.2571 15.21448176  3478
2025-234D               
1 66056U 25234D   25314.94633958  .00027678  00000+0  12055-2 0  9995
2 66056  97.4529  20.4012 0015053 198.7472 161.3212 15.22074495  3460
2025-234E               
1 66057U 25234E   25314.91936674  .00614058  00000+0  15818-1 0  9997
2 66057  97.4796  20.6888 0011673 228.0998 131.9251 15.37046454  3482
STARLINK-35552          
1 66058U 25235A   25314.91667824  .00115950  00000+0  82345-3 0  9995
2 66058  53.1554  78.5965 0002803  15.6975 336.4158 15.73074893  4760
STARLINK-35560          
1 66059U 25235B   25314.91667824 -.00080655  00000+0 -14558-2 0  9991
2 66059  53.1595  79.2804 0001265  59.6200 315.3718 15.49334653  4760
STARLINK-35558          
1 66060U 25235C   25314.91667824 -.00080946  00000+0 -14611-2 0  9996
2 66060  53.1596  79.2752 0001317  58.3646 318.5439 15.49335022  4769
STARLINK-35566          
1 66061U 25235D   25314.91667824 -.00073812  00000+0 -13306-2 0  9991
2 66061  53.1595  79.2724 0001353  61.0142 317.8131 15.49330013  4766
STARLINK-35421          
1 66062U 25235E   25314.91667824 -.00096455  00000+0 -17457-2 0  9991
2 66062  53.1594  79.2672 0001360  57.9472 322.8001 15.49340355  4768
STARLINK-35562          
1 66063U 25235F   25314.91667824 -.00089388  00000+0 -16159-2 0  9997
2 66063  53.1595  79.2642 0001229  87.2271 295.4348 15.49338076  4760
STARLINK-35542          
1 66064U 25235G   25314.91667824 -.02069824  00000+0 -44985-1 0  9990
2 66064  53.1595  79.2625 0001133  52.2950 330.5596 15.47252552  4760
STARLINK-35375          
1 66065U 25235H   25314.91667824 -.01257456  00000+0 -24569-1 0  9996
2 66065  53.1595  79.2561 0000953  90.9130 295.5075 15.49718438  4762
